1 00888           19337.16666667  .00000283  00000-0  61036-3 0 00002
2 00888 053.1249 269.3681 0007945 268.8638 027.2630 13.29213772
1 00889           19337.16666667  .00000203  00000-0  43773-3 0 00003
2 00889 053.1249 269.3681 0007945 268.8628 034.4639 13.29213843
1 00890           19337.16666667  .00000118  00000-0  25450-3 0 00002
2 00890 053.1249 269.3681 0007946 268.8615 041.6651 13.29213921
1 00891           19337.16666667  .00000033  00000-0  72087-4 0 00008
2 00891 053.1249 269.3681 0007946 268.8601 048.8665 13.29213999
1 00892           19337.16666667 -.00000046  00000-0 -98348-4 0 00003
2 00892 053.1249 269.3681 0007947 268.8588 056.0678 13.29214074
1 00893           19337.16666667 -.00000114  00000-0 -24653-3 0 00007
2 00893 053.1248 269.3681 0007947 268.8577 063.2688 13.29214140
1 00936           19337.16666667  .00000400  00000-0  86266-3 0 00003
2 00936 053.1236 280.5521 0007944 268.8650 012.8883 13.29213626
1 00937           19337.16666667  .00000345  00000-0  74327-3 0 00007
2 00937 053.1236 280.5522 0007945 268.8644 020.0889 13.29213671
1 00938           19337.16666667  .00000275  00000-0  59221-3 0 00006
2 00938 053.1236 280.5522 0007945 268.8636 027.2896 13.29213731
1 00939           19337.16666667  .00000195  00000-0  41953-3 0 00001
2 00939 053.1236 280.5522 0007945 268.8626 034.4906 13.29213803
1 00940           19337.16666667  .00000110  00000-0  23628-3 0 00009
2 00940 053.1236 280.5522 0007946 268.8614 041.6917 13.29213880
1 00941           19337.16666667  .00000025  00000-0  53902-4 0 00004
2 00941 053.1236 280.5522 0007946 268.8600 048.8931 13.29213959
1 00942           19337.16666667 -.00000054  00000-0 -11647-3 0 00008
2 00942 053.1236 280.5522 0007947 268.8586 056.0944 13.29214033
1 00943           19337.16666667 -.00000123  00000-0 -26456-3 0 00000
2 00943 053.1236 280.5522 0007947 268.8575 063.2955 13.29214099
1 00985           19337.16666667  .00000429  00000-0  92474-3 0 00001
2 00985 053.1181 291.8368 0007944 268.8649 005.7140 13.29213398
1 00986           19337.16666667  .00000392  00000-0  84518-3 0 00001
2 00986 053.1181 291.8368 0007944 268.8643 012.9146 13.29213424
1 00987           19337.16666667  .00000337  00000-0  72569-3 0 00004
2 00987 053.1181 291.8368 0007944 268.8637 020.1152 13.29213468
1 00988           19337.16666667  .00000267  00000-0  57457-3 0 00006
2 00988 053.1181 291.8368 0007944 268.8630 027.3159 13.29213529
1 00989           19337.16666667  .00000186  00000-0  40186-3 0 00008
2 00989 053.1181 291.8368 0007945 268.8620 034.5169 13.29213600
1 00990           19337.16666667  .00000101  00000-0  21863-3 0 00008
2 00990 053.1182 291.8368 0007945 268.8608 041.7181 13.29213678
1 00991           19337.16666667  .00000017  00000-0  36288-4 0 00003
2 00991 053.1182 291.8368 0007946 268.8594 048.9194 13.29213756
1 00992           19337.16666667 -.00000062  00000-0 -13401-3 0 00007
2 00992 053.1182 291.8368 0007946 268.8580 056.1207 13.29213831
1 01034           19337.16666667  .00000437  00000-0  94250-3 0 00003
2 01034 053.1089 303.0227 0007942 268.8647 358.5377 13.29213040
1 01035           19337.16666667  .00000422  00000-0  90879-3 0 00001
2 01035 053.1089 303.0227 0007943 268.8639 005.7385 13.29213044
1 01036           19337.16666667  .00000385  00000-0  82914-3 0 00001
2 01036 053.1089 303.0227 0007943 268.8633 012.9391 13.29213070
1 01037           19337.16666667  .00000329  00000-0  70958-3 0 00005
2 01037 053.1089 303.0227 0007943 268.8627 020.1397 13.29213115
1 01038           19337.16666667  .00000259  00000-0  55842-3 0 00003
2 01038 053.1089 303.0227 0007944 268.8619 027.3404 13.29213175
1 01039           19337.16666667  .00000179  00000-0  38571-3 0 00005
2 01039 053.1089 303.0228 0007944 268.8609 034.5414 13.29213247
1 01040           19337.16666667  .00000094  00000-0  20250-3 0 00008
2 01040 053.1089 303.0228 0007944 268.8597 041.7426 13.29213324
1 01041           19337.16666667  .00000009  00000-0  20225-4 0 00008
2 01041 053.1089 303.0228 0007945 268.8583 048.9439 13.29213403
1 01084           19337.16666667  .00000431  00000-0  92836-3 0 00005
2 01084 053.0959 314.3104 0007941 268.8633 358.5599 13.29212543
1 01085           19337.16666667  .00000415  00000-0  89457-3 0 00003
2 01085 053.0959 314.3104 0007941 268.8624 005.7608 13.29212547
1 01086           19337.16666667  .00000378  00000-0  81486-3 0 00006
2 01086 053.0959 314.3104 0007942 268.8618 012.9614 13.29212573
1 01087           19337.16666667  .00000322  00000-0  69526-3 0 00007
2 01087 053.0959 314.3104 0007942 268.8612 020.1619 13.29212618
1 01088           19337.16666667  .00000252  00000-0  54410-3 0 00006
2 01088 053.0959 314.3104 0007942 268.8605 027.3627 13.29212678
1 01089           19337.16666667  .00000172  00000-0  37141-3 0 00000
2 01089 053.0959 314.3104 0007942 268.8595 034.5636 13.29212750
1 01090           19337.16666667  .00000087  00000-0  18825-3 0 00005
2 01090 053.0959 314.3104 0007943 268.8582 041.7648 13.29212827
1 01133           19337.16666667  .00000418  00000-0  90131-3 0 00005
2 01133 053.0800 325.5004 0007939 268.8626 351.3775 13.29211949
1 01134           19337.16666667  .00000425  00000-0  91671-3 0 00004
2 01134 053.0800 325.5004 0007939 268.8615 358.5787 13.29211930
1 01135           19337.16666667  .00000410  00000-0  88287-3 0 00008
2 01135 053.0800 325.5004 0007940 268.8606 005.7795 13.29211934
1 01136           19337.16666667  .00000373  00000-0  80314-3 0 00000
2 01136 053.0800 325.5004 0007940 268.8600 012.9801 13.29211960
1 01137           19337.16666667  .00000317  00000-0  68354-3 0 00009
2 01137 053.0800 325.5004 0007940 268.8594 020.1806 13.29212005
1 01138           19337.16666667  .00000247  00000-0  53240-3 0 00000
2 01138 053.0800 325.5004 0007941 268.8587 027.3814 13.29212065
1 01231           19337.16666667  .00000329  00000-0  70951-3 0 00002
2 01231 053.0414 347.9884 0007934 268.8621 336.9984 13.29210556
1 01232           19337.16666667  .00000381  00000-0  82169-3 0 00005
2 01232 053.0414 347.9884 0007934 268.8599 344.2006 13.29210495
1 01233           19337.16666667  .00000411  00000-0  88673-3 0 00006
2 01233 053.0414 347.9884 0007935 268.8583 351.4023 13.29210454
1 01234           19337.16666667  .00000418  00000-0  90212-3 0 00006
2 01234 053.0414 347.9884 0007935 268.8571 358.6035 13.29210435
1 01235           19337.16666667  .00000403  00000-0  86830-3 0 00002
2 01235 053.0414 347.9884 0007936 268.8563 005.8043 13.29210439
1 01279           19337.16666667  .00000169  00000-0  36486-3 0 00006
2 01279 053.0202 359.2870 0007931 268.8657 322.5973 13.29209903
1 01280           19337.16666667  .00000257  00000-0  55305-3 0 00007
2 01280 053.0202 359.2870 0007931 268.8624 329.8007 13.29209810
1 01281           19337.16666667  .00000328  00000-0  70709-3 0 00002
2 01281 053.0202 359.2870 0007932 268.8596 337.0035 13.29209730
1 01282           19337.16666667  .00000380  00000-0  81929-3 0 00007
2 01282 053.0202 359.2870 0007932 268.8575 344.2057 13.29209669
1 01283           19337.16666667  .00000410  00000-0  88436-3 0 00002
2 01283 053.0202 359.2870 0007933 268.8559 351.4074 13.29209628
1 01284           19337.16666667  .00000417  00000-0  89979-3 0 00003
2 01284 053.0202 359.2870 0007933 268.8547 358.6086 13.29209609
1 01285           19337.16666667  .00000402  00000-0  86604-3 0 00000
2 01285 053.0202 359.2870 0007933 268.8539 005.8094 13.29209613
1 01328           19337.16666667  .00000071  00000-0  15306-3 0 00005
2 01328 052.9990 010.4888 0007929 268.8669 315.3934 13.29209179
1 01329           19337.16666667  .00000170  00000-0  36580-3 0 00003
2 01329 052.9990 010.4888 0007929 268.8632 322.5972 13.29209076
1 01330           19337.16666667  .00000257  00000-0  55400-3 0 00003
2 01330 052.9990 010.4888 0007929 268.8599 329.8006 13.29208983
1 01331           19337.16666667  .00000328  00000-0  70807-3 0 00001
2 01331 052.9990 010.4888 0007930 268.8572 337.0034 13.29208903
1 01332           19337.16666667  .00000380  00000-0  82031-3 0 00002
2 01332 052.9990 010.4888 0007930 268.8551 344.2056 13.29208842
1 01333           19337.16666667  .00000411  00000-0  88544-3 0 00003
2 01333 052.9990 010.4888 0007930 268.8535 351.4072 13.29208800
1 01334           19337.16666667  .00000418  00000-0  90096-3 0 00006
2 01334 052.9990 010.4888 0007931 268.8523 358.6084 13.29208782
1 01376           19337.16666667 -.00000137  00000-0 -29636-3 0 00009
2 01376 052.9782 021.7937 0007926 268.8725 300.9800 13.29208579
1 01377           19337.16666667 -.00000032  00000-0 -68847-4 0 00002
2 01377 052.9782 021.7937 0007926 268.8685 308.1841 13.29208474
1 01378           19337.16666667  .00000073  00000-0  15732-3 0 00000
2 01378 052.9782 021.7937 0007927 268.8645 315.3881 13.29208368
1 01379           19337.16666667  .00000172  00000-0  37007-3 0 00000
2 01379 052.9782 021.7937 0007927 268.8608 322.5919 13.29208266
1 01380           19337.16666667  .00000259  00000-0  55830-3 0 00002
2 01380 052.9782 021.7937 0007927 268.8576 329.7952 13.29208172
1 01381           19337.16666667  .00000330  00000-0  71242-3 0 00008
2 01381 052.9782 021.7937 0007927 268.8549 336.9980 13.29208093
1 01382           19337.16666667  .00000383  00000-0  82473-3 0 00005
2 01382 052.9782 021.7936 0007928 268.8527 344.2002 13.29208031
1 01383           19337.16666667  .00000413  00000-0  88996-3 0 00006
2 01383 052.9782 021.7936 0007928 268.8511 351.4018 13.29207990
1 01425           19337.16666667 -.00000234  00000-0 -50546-3 0 00000
2 01425 052.9591 033.0014 0007925 268.8741 293.7658 13.29207927
1 01426           19337.16666667 -.00000134  00000-0 -28899-3 0 00006
2 01426 052.9591 033.0014 0007925 268.8702 300.9697 13.29207830
1 01427           19337.16666667 -.00000029  00000-0 -61500-4 0 00007
2 01427 052.9591 033.0014 0007924 268.8663 308.1738 13.29207726
1 01428           19337.16666667  .00000076  00000-0  16467-3 0 00009
2 01428 052.9591 033.0014 0007925 268.8623 315.3778 13.29207619
